NORAD_CAT_ID,OBJECT_NAME,OBJECT_TYPE,EPOCH,MEAN_MOTION,ECCENTRICITY,INCLINATION,RA_OF_ASC_NODE,ARG_OF_PERICENTER,MEAN_ANOMALY,BSTAR,MEAN_MOTION_DOT,MEAN_MOTION_DDOT,TLE_LINE0,TLE_LINE1,TLE_LINE2,SEMIMAJOR_AXIS,PERIOD,APOGEE,PERIGEE,DECAYED
54076.0,STARLINK-5201,PAYLOAD,2023-06-07 07:53:25,15.08842429,0.0001015,53.2152,181.4278,82.6031,277.5077,4.9936e-05,5.07e-06,0.0,0 STARLINK-5201,1 54076U 22136AB  23158.32876312  .00000507  00000-0  49936-4 0  9994,2 54076  53.2152 181.4278 0001015  82.6031 277.5077 15.08842429 34926,6917.873,95.437,540.44,539.036,0.0
54076.0,STARLINK-5201,PAYLOAD,2023-06-07 19:01:07,15.08841683,0.0001013,53.2153,179.3463,81.3969,278.7138,4.1494e-05,3.73e-06,0.0,0 STARLINK-5201,1 54076U 22136AB  23158.79244326  .00000373  00000-0  41494-4 0  9991,2 54076  53.2153 179.3463 0001013  81.3969 278.7138 15.08841683 34992,6917.875,95.437,540.441,539.039,0.0
54076.0,STARLINK-5201,PAYLOAD,2023-06-08 07:44:12,15.08839602,0.0001015,53.2152,176.9673,82.4059,277.7048,4.2223e-05,3.84e-06,0.0,0 STARLINK-5201,1 54076U 22136AB  23159.32236457  .00000384  00000-0  42223-4 0  9990,2 54076  53.2152 176.9673 0001015  82.4059 277.7048 15.08839602 35551,6917.882,95.438,540.449,539.044,0.0
54076.0,STARLINK-5201,PAYLOAD,2023-06-09 10:45:45,15.08840097,0.0001,53.215,171.9121,83.3719,276.7387,2.09e-05,4.5e-07,0.0,0 STARLINK-5201,1 54076U 22136AB  23160.44844477  .00000045  00000-0  20900-4 0  9994,2 54076  53.2150 171.9121 0001000  83.3719 276.7387 15.08840097 35723,6917.88,95.438,540.437,539.053,0.0
54076.0,STARLINK-5201,PAYLOAD,2023-06-10 01:04:14,15.08833153,0.0001029,53.215,169.2352,82.7574,277.3535,-3.4979e-06,-3.43e-06,0.0,0 STARLINK-5201,1 54076U 22136AB  23161.04461096 -.00000343  00000-0 -34979-5 0  9998,2 54076  53.2150 169.2352 0001029  82.7574 277.3535 15.08833153 35819,6917.901,95.438,540.478,539.054,0.0
54076.0,STARLINK-5201,PAYLOAD,2023-06-10 07:25:46,15.08834092,0.0001032,53.215,168.0458,81.9634,278.1475,3.7604e-06,-2.28e-06,0.0,0 STARLINK-5201,1 54076U 22136AB  23161.30957117 -.00000228  00000-0  37604-5 0  9990,2 54076  53.2150 168.0458 0001032  81.9634 278.1475 15.08834092 35371,6917.898,95.438,540.477,539.05,0.0
54076.0,STARLINK-5201,PAYLOAD,2023-06-11 07:16:33,15.08837742,0.0001039,53.2148,163.5854,80.6336,279.4773,4.8397e-05,4.83e-06,0.0,0 STARLINK-5201,1 54076U 22136AB  23162.30317050  .00000483  00000-0  48397-4 0  9999,2 54076  53.2148 163.5854 0001039  80.6336 279.4773 15.08837742 36001,6917.887,95.438,540.471,539.034,0.0
54076.0,STARLINK-5201,PAYLOAD,2023-06-11 16:48:52,15.08837479,0.0001047,53.2149,161.8012,79.2306,280.8803,5.4565e-05,5.81e-06,0.0,0 STARLINK-5201,1 54076U 22136AB  23162.70061129  .00000581  00000-0  54565-4 0  9999,2 54076  53.2149 161.8012 0001047  79.2306 280.8803 15.08837479 35588,6917.888,95.438,540.477,539.029,0.0
54076.0,STARLINK-5201,PAYLOAD,2023-06-12 10:18:07,15.08838968,0.000106,53.215,158.5303,80.5403,279.5709,9.3383e-05,1.199e-05,0.0,0 STARLINK-5201,1 54076U 22136AB  23163.42925033  .00001199  00000-0  93383-4 0  9999,2 54076  53.2150 158.5303 0001060  80.5403 279.5709 15.08838968 36174,6917.884,95.438,540.482,539.015,0.0
54076.0,STARLINK-5201,PAYLOAD,2023-06-13 08:33:31,15.08834032,0.0001078,53.215,154.367,83.343,276.7684,-1.3889e-06,-3.1e-06,0.0,0 STARLINK-5201,1 54076U 22136AB  23164.35661839 -.00000310  00000-0 -13889-5 0  9993,2 54076  53.2150 154.3670 0001078  83.3430 276.7684 15.08834032 36310,6917.899,95.438,540.509,539.018,0.0
54076.0,STARLINK-5201,PAYLOAD,2023-06-14 00:27:22,15.08839665,0.0001264,53.2161,151.392,79.5746,280.5389,2.1802e-05,5.9e-07,0.0,0 STARLINK-5201,1 54076U 22136AB  23165.01901572  .00000059  00000-0  21802-4 0  9999,2 54076  53.2161 151.3920 0001264  79.5746 280.5389 15.08839665 36414,6917.881,95.438,540.621,538.872,0.0
54076.0,STARLINK-5201,PAYLOAD,2023-06-14 16:21:14,15.08841199,0.0001137,53.216,148.4179,91.5739,268.5383,7.1094e-05,8.44e-06,0.0,0 STARLINK-5201,1 54076U 22136AB  23165.68141257  .00000844  00000-0  71094-4 0  9998,2 54076  53.2160 148.4179 0001137  91.5739 268.5383 15.08841199 36034,6917.877,95.437,540.528,538.955,0.0
54076.0,STARLINK-5201,PAYLOAD,2023-06-15 08:15:05,15.08843216,0.0001191,53.2156,145.4457,84.9175,275.1953,9.4764e-05,1.221e-05,0.0,0 STARLINK-5201,1 54076U 22136AB  23166.34381050  .00001221  00000-0  94764-4 0  9998,2 54076  53.2156 145.4457 0001191  84.9175 275.1953 15.08843216 36618,6917.871,95.437,540.559,538.912,0.0
54076.0,STARLINK-5201,PAYLOAD,2023-06-15 16:12:01,15.08841723,0.0001175,53.2156,143.9587,85.0491,275.0636,7.6286e-05,9.27e-06,0.0,0 STARLINK-5201,1 54076U 22136AB  23166.67501166  .00000927  00000-0  76286-4 0  9997,2 54076  53.2156 143.9587 0001175  85.0491 275.0636 15.08841723 36180,6917.875,95.437,540.553,538.927,0.0
54076.0,STARLINK-5201,PAYLOAD,2023-06-16 01:44:20,15.08840675,0.000121,53.2158,142.1745,86.8985,273.2146,2.0381e-05,3.7e-07,0.0,0 STARLINK-5201,1 54076U 22136AB  23167.07245372  .00000037  00000-0  20381-4 0  9993,2 54076  53.2158 142.1745 0001210  86.8985 273.2146 15.08840675 36727,6917.878,95.438,540.58,538.906,0.0
54076.0,STARLINK-5201,PAYLOAD,2023-06-16 08:05:52,15.08845052,0.0001258,53.216,140.9844,91.148,268.9656,5.8821e-05,6.49e-06,0.0,0 STARLINK-5201,1 54076U 22136AB  23167.33740914  .00000649  00000-0  58821-4 0  9993,2 54076  53.2160 140.9844 0001258  91.1480 268.9656 15.08845052 36289,6917.865,95.437,540.6,538.86,0.0
54076.0,STARLINK-5201,PAYLOAD,2023-06-17 07:56:39,15.08841081,0.000131,53.2163,136.5236,94.0316,266.0826,1.2664e-05,-8.6e-07,0.0,0 STARLINK-5201,1 54076U 22136AB  23168.33101099 -.00000086  00000-0  12664-4 0  9990,2 54076  53.2163 136.5236 0001310  94.0316 266.0826 15.08841081 36913,6917.877,95.437,540.648,538.836,0.0
54076.0,STARLINK-5201,PAYLOAD,2023-06-17 20:39:45,15.08829154,0.0001275,53.2156,134.1455,93.9891,266.1247,-5.3444e-05,-1.138e-05,0.0,0 STARLINK-5201,1 54076U 22136AB  23168.86094211 -.00001138  00000-0 -53444-4 0  9996,2 54076  53.2156 134.1455 0001275  93.9891 266.1247 15.08829154 36519,6917.914,95.438,540.661,538.897,0.0
54076.0,STARLINK-5201,PAYLOAD,2023-06-17 23:50:31,15.08829479,0.0001287,53.2157,133.5509,94.5706,265.5433,-6.1958e-05,-1.273e-05,0.0,0 STARLINK-5201,1 54076U 22136AB  23168.99342277 -.00001273  00000-0 -61958-4 0  9997,2 54076  53.2157 133.5509 0001287  94.5706 265.5433 15.08829479 37014,6917.913,95.438,540.668,538.887,0.0
54076.0,STARLINK-5201,PAYLOAD,2023-06-18 04:36:40,15.08833184,0.0001282,53.2157,132.6579,98.4289,261.6848,-4.2276e-05,-9.6e-06,0.0,0 STARLINK-5201,1 54076U 22136AB  23169.19214076 -.00000960  00000-0 -42276-4 0  9999,2 54076  53.2157 132.6579 0001282  98.4289 261.6848 15.08833184 36569,6917.901,95.438,540.653,538.879,0.0
54076.0,STARLINK-5201,PAYLOAD,2023-06-18 14:08:59,15.08835997,0.0001243,53.2159,130.874,90.548,269.5654,3.9243e-06,-2.25e-06,0.0,0 STARLINK-5201,1 54076U 22136AB  23169.58957904 -.00000225  00000-0  39243-5 0  9990,2 54076  53.2159 130.8740 0001243  90.5480 269.5654 15.08835997 37101,6917.893,95.438,540.618,538.898,0.0
54076.0,STARLINK-5201,PAYLOAD,2023-06-19 06:02:50,15.08844589,0.0001199,53.2157,127.9018,95.7734,264.3394,6.6597e-05,7.72e-06,0.0,0 STARLINK-5201,1 54076U 22136AB  23170.25197321  .00000772  00000-0  66597-4 0  9992,2 54076  53.2157 127.9018 0001199  95.7734 264.3394 15.08844589 37205,6917.866,95.437,540.561,538.902,0.0
54076.0,STARLINK-5201,PAYLOAD,2023-06-19 13:59:46,15.08839128,0.0001167,53.216,126.4154,98.8549,261.2575,4.5978e-05,4.44e-06,0.0,0 STARLINK-5201,1 54076U 22136AB  23170.58317735  .00000444  00000-0  45978-4 0  9997,2 54076  53.2160 126.4154 0001167  98.8549 261.2575 15.08839128 36778,6917.883,95.438,540.555,538.941,0.0
54076.0,STARLINK-5201,PAYLOAD,2023-06-20 07:29:01,15.08832067,0.0001174,53.2161,123.1442,100.8254,259.287,6.6959e-05,7.78e-06,0.0,0 STARLINK-5201,1 54076U 22136AB  23171.31182475  .00000778  00000-0  66959-4 0  9992,2 54076  53.2161 123.1442 0001174 100.8254 259.2870 15.08832067 37364,6917.905,95.438,540.582,538.957,0.0
54076.0,STARLINK-5201,PAYLOAD,2023-06-20 13:50:34,15.0883552,0.0001163,53.2162,121.9555,95.476,264.6365,5.3624e-05,5.66e-06,0.0,0 STARLINK-5201,1 54076U 22136AB  23171.57678400  .00000566  00000-0  53624-4 0  9998,2 54076  53.2162 121.9555 0001163  95.4760 264.6365 15.08835520 36922,6917.894,95.438,540.564,538.955,0.0
54076.0,STARLINK-5201,PAYLOAD,2023-06-21 02:33:38,15.08843493,0.0001196,53.2161,119.5764,94.3875,265.7253,2.5757e-05,1.22e-06,0.0,0 STARLINK-5201,1 54076U 22136AB  23172.10670051  .00000122  00000-0  25757-4 0  9996,2 54076  53.2161 119.5764 0001196  94.3875 265.7253 15.08843493 37485,6917.87,95.437,540.562,538.907,0.0
54076.0,STARLINK-5201,PAYLOAD,2023-06-21 05:44:24,15.08848144,0.0001207,53.2163,118.9815,94.0055,266.1075,6.2042e-05,7e-06,0.0,0 STARLINK-5201,1 54076U 22136AB  23172.23917624  .00000700  00000-0  62042-4 0  9990,2 54076  53.2163 118.9815 0001207  94.0055 266.1075 15.08848144 37022,6917.855,95.437,540.555,538.886,0.0
54076.0,STARLINK-5201,PAYLOAD,2023-06-21 13:41:21,15.08840171,0.0001247,53.2165,117.4936,90.2509,269.8626,-2.3236e-05,-6.58e-06,0.0,0 STARLINK-5201,1 54076U 22136AB  23172.57038340 -.00000658  00000-0 -23236-4 0  9992,2 54076  53.2165 117.4936 0001247  90.2509 269.8626 15.08840171 37077,6917.88,95.438,540.608,538.882,0.0
54076.0,STARLINK-5201,PAYLOAD,2023-06-22 02:24:26,15.08837725,0.0001469,53.217,115.1139,87.4246,272.6914,2.5141e-05,1.12e-06,0.0,0 STARLINK-5201,1 54076U 22136AB  23173.10030579  .00000112  00000-0  25141-4 0  9998,2 54076  53.2170 115.1139 0001469  87.4246 272.6914 15.08837725 37630,6917.887,95.438,540.769,538.736,0.0
54076.0,STARLINK-5201,PAYLOAD,2023-06-23 02:15:12,15.08851273,0.0001176,53.2154,110.6541,105.0412,255.071,6.2194e-05,7.02e-06,0.0,0 STARLINK-5201,1 54076U 22136AB  23174.09389386  .00000702  00000-0  62194-4 0  9994,2 54076  53.2154 110.6541 0001176 105.0412 255.0710 15.08851273 37785,6917.846,95.437,540.524,538.897,0.0
